start=new Date('2022-04-28T00:00:00.000Z').valueOf();
sats=[{"OBJECT_ID":"2021-024T","TIME_SYSTEM":"UTC","EPOCH":"2022-04-27T12:55:01.255872","OBJECT_TYPE":"PAYLOAD","REF_FRAME":"TEME","MEAN_ANOMALY":"305.6985","LAUNCH_DATE":"2021-03-24","ELEMENT_SET_NO":"999","MEAN_ELEMENT_THEORY":"SGP4","CLASSIFICATION_TYPE":"U","MEAN_MOTION":"15.06395865","ARG_OF_PERICENTER":"54.4164","NORAD_CAT_ID":"47994","OBJECT_NAME":"STARLINK-2290","SITE":"AFETR","MEAN_MOTION_DDOT":"0.0000000000000","REV_AT_EPOCH":"6154","PERIOD":"95.592","APOAPSIS":"548.417","DECAY_DATE":null,"CENTER_NAME":"EARTH","COUNTRY_CODE":"US","RA_OF_ASC_NODE":"171.0191","INCLINATION":"53.0561","TLE_LINE2":"2 47994  53.0561 171.0191 0001720  54.4164 305.6985 15.06395865 61549","SEMIMAJOR_AXIS":"6925.361","FILE":"3418248","MEAN_MOTION_DOT":"0.00002047","PERIAPSIS":"546.035","GP_ID":"202130898","RCS_SIZE":"LARGE","ECCENTRICITY":"0.00017200","BSTAR":"0.00015628000000","TLE_LINE1":"1 47994U 21024T   22117.53820898  .00002047  00000-0  15628-3 0  9996","EPHEMERIS_TYPE":"0"},{"ARG_OF_PERICENTER":"51.9903","MEAN_MOTION":"15.06400204","CLASSIFICATION_TYPE":"U","LAUNCH_DATE":"2021-03-24","ELEMENT_SET_NO":"999","MEAN_ELEMENT_THEORY":"SGP4","MEAN_ANOMALY":"308.1266","OBJECT_TYPE":"PAYLOAD","REF_FRAME":"TEME","EPOCH":"2022-04-27T12:23:48.788160","TIME_SYSTEM":"UTC","OBJECT_ID":"2021-024U","APOAPSIS":"548.595","DECAY_DATE":null,"CENTER_NAME":"EARTH","PERIOD":"95.592","MEAN_MOTION_DDOT":"0.0000000000000","REV_AT_EPOCH":"6250","SITE":"AFETR","OBJECT_NAME":"STARLINK-2309","NORAD_CAT_ID":"47995","TLE_LINE2":"2 47995  53.0544 136.1224 0001996  51.9903 308.1266 15.06400204 62509","INCLINATION":"53.0544","RA_OF_ASC_NODE":"136.1224","COUNTRY_CODE":"US","EPHEMERIS_TYPE":"0","TLE_LINE1":"1 47995U 21024U   22117.51653690  .00000540  00000-0  55169-4 0  9990","RCS_SIZE":"LARGE","ECCENTRICITY":"0.00019960","BSTAR":"0.00005516900000","GP_ID":"202158072","PERIAPSIS":"545.831","FILE":"3418497","MEAN_MOTION_DOT":"0.00000540","SEMIMAJOR_AXIS":"6925.348"},{"OBJECT_NAME":"STARLINK-2260","NORAD_CAT_ID":"47996","APOAPSIS":"459.084","DECAY_DATE":null,"CENTER_NAME":"EARTH","PERIOD":"93.718","MEAN_MOTION_DDOT":"0.0000000000000","REV_AT_EPOCH":"6305","SITE":"AFETR","EPOCH":"2022-04-27T22:00:00.999936","TIME_SYSTEM":"UTC","OBJECT_ID":"2021-024V","ARG_OF_PERICENTER":"163.8658","CLASSIFICATION_TYPE":"U","MEAN_MOTION":"15.36526666","LAUNCH_DATE":"2021-03-24","ELEMENT_SET_NO":"999","MEAN_ANOMALY":"74.2439","MEAN_ELEMENT_THEORY":"SGP4","REF_FRAME":"TEME","OBJECT_TYPE":"PAYLOAD","PERIAPSIS":"453.699","FILE":"3418725","MEAN_MOTION_DOT":"-0.00105502","SEMIMAJOR_AXIS":"6834.527","EPHEMERIS_TYPE":"0","TLE_LINE1":"1 47996U 21024V   22117.91667824 -.00105502  00000-0 -29459-2 0  9996","RCS_SIZE":"LARGE","ECCENTRICITY":"0.00039400","BSTAR":"-0.00294590000000","GP_ID":"202166669","INCLINATION":"53.0451","RA_OF_ASC_NODE":"65.4290","COUNTRY_CODE":"US","TLE_LINE2":"2 47996  53.0451  65.4290 0003940 163.8658  74.2439 15.36526666 63053"},{"FILE":"3418497","MEAN_MOTION_DOT":"0.00000217","PERIAPSIS":"546.033","SEMIMAJOR_AXIS":"6925.372","EPHEMERIS_TYPE":"0","TLE_LINE1":"1 47997U 21024W   22117.51978728  .00000217  00000-0  33507-4 0  9997","GP_ID":"202157572","RCS_SIZE":"LARGE","ECCENTRICITY":"0.00017390","BSTAR":"0.00003350700000","INCLINATION":"53.0523","COUNTRY_CODE":"US","RA_OF_ASC_NODE":"171.1024","TLE_LINE2":"2 47997  53.0523 171.1024 0001739  51.1052 309.0092 15.06392356 62063","OBJECT_NAME":"STARLINK-2266","NORAD_CAT_ID":"47997","PERIOD":"95.593","APOAPSIS":"548.441","CENTER_NAME":"EARTH","DECAY_DATE":null,"SITE":"AFETR","MEAN_MOTION_DDOT":"0.0000000000000","REV_AT_EPOCH":"6206","EPOCH":"2022-04-27T12:28:29.620992","OBJECT_ID":"2021-024W","TIME_SYSTEM":"UTC","CLASSIFICATION_TYPE":"U","MEAN_MOTION":"15.06392356","ARG_OF_PERICENTER":"51.1052","REF_FRAME":"TEME","OBJECT_TYPE":"PAYLOAD","LAUNCH_DATE":"2021-03-24","ELEMENT_SET_NO":"999","MEAN_ANOMALY":"309.0092","MEAN_ELEMENT_THEORY":"SGP4"},{"SITE":"AFETR","REV_AT_EPOCH":"6235","MEAN_MOTION_DDOT":"0.0000000000000","PERIOD":"95.593","DECAY_DATE":null,"CENTER_NAME":"EARTH","APOAPSIS":"548.495","NORAD_CAT_ID":"47998","OBJECT_NAME":"STARLINK-2296","REF_FRAME":"TEME","OBJECT_TYPE":"PAYLOAD","ELEMENT_SET_NO":"999","LAUNCH_DATE":"2021-03-24","MEAN_ELEMENT_THEORY":"SGP4","MEAN_ANOMALY":"316.6368","CLASSIFICATION_TYPE":"U","MEAN_MOTION":"15.06392998","ARG_OF_PERICENTER":"43.4765","OBJECT_ID":"2021-024X","TIME_SYSTEM":"UTC","EPOCH":"2022-04-27T12:06:34.001280","GP_ID":"202157321","BSTAR":"-0.00001653000000","RCS_SIZE":"LARGE","ECCENTRICITY":"0.00018190","TLE_LINE1":"1 47998U 21024X   22117.50456020 -.00000528  00000-0 -16530-4 0  9997","EPHEMERIS_TYPE":"0","SEMIMAJOR_AXIS":"6925.370","MEAN_MOTION_DOT":"-0.00000528","FILE":"3418497","PERIAPSIS":"545.975","TLE_LINE2":"2 47998  53.0554 146.1661 0001819  43.4765 316.6368 15.06392998 62355","COUNTRY_CODE":"US","RA_OF_ASC_NODE":"146.1661","INCLINATION":"53.0554"},{"ELEMENT_SET_NO":"999","LAUNCH_DATE":"2021-03-24","MEAN_ANOMALY":"162.4106","MEAN_ELEMENT_THEORY":"SGP4","OBJECT_TYPE":"PAYLOAD","REF_FRAME":"TEME","ARG_OF_PERICENTER":"58.8911","CLASSIFICATION_TYPE":"U","MEAN_MOTION":"15.06384564","TIME_SYSTEM":"UTC","OBJECT_ID":"2021-024Y","EPOCH":"2022-04-27T22:00:00.999936","MEAN_MOTION_DDOT":"0.0000000000000","REV_AT_EPOCH":"6236","SITE":"AFETR","DECAY_DATE":null,"CENTER_NAME":"EARTH","APOAPSIS":"548.534","PERIOD":"95.593","NORAD_CAT_ID":"47999","OBJECT_NAME":"STARLINK-2218","TLE_LINE2":"2 47999  53.0548 114.3261 0001838  58.8911 162.4106 15.06384564 62364","RA_OF_ASC_NODE":"114.3261","COUNTRY_CODE":"US","INCLINATION":"53.0548","BSTAR":"0.00269280000000","RCS_SIZE":"LARGE","ECCENTRICITY":"0.00018380","GP_ID":"202169032","EPHEMERIS_TYPE":"0","TLE_LINE1":"1 47999U 21024Y   22117.91667824  .00040040  00000-0  26928-2 0  9990","SEMIMAJOR_AXIS":"6925.396","PERIAPSIS":"545.988","MEAN_MOTION_DOT":"0.00040040","FILE":"3418825"},{"SITE":"AFETR","MEAN_MOTION_DDOT":"0.0000000000000","REV_AT_EPOCH":"359","PERIOD":"95.590","APOAPSIS":"548.898","CENTER_NAME":"EARTH","DECAY_DATE":null,"NORAD_CAT_ID":"48000","OBJECT_NAME":"STARLINK-2270","OBJECT_TYPE":"PAYLOAD","REF_FRAME":"TEME","LAUNCH_DATE":"2021-03-24","ELEMENT_SET_NO":"999","MEAN_ELEMENT_THEORY":"SGP4","MEAN_ANOMALY":"299.8891","CLASSIFICATION_TYPE":"U","MEAN_MOTION":"15.06433215","ARG_OF_PERICENTER":"35.3464","OBJECT_ID":"2021-024Z","TIME_SYSTEM":"UTC","EPOCH":"2022-04-27T14:00:01.999872","GP_ID":"202158318","RCS_SIZE":"LARGE","ECCENTRICITY":"0.00025800","BSTAR":"-0.00558730000000","EPHEMERIS_TYPE":"0","TLE_LINE1":"1 48000U 21024Z   22117.58335648 -.00082624  00000-0 -55873-2 0  9990","SEMIMAJOR_AXIS":"6925.247","FILE":"3418497","MEAN_MOTION_DOT":"-0.00082624","PERIAPSIS":"545.325","TLE_LINE2":"2 48000  53.0542 100.8059 0002580  35.3464 299.8891 15.06433215  3599","COUNTRY_CODE":"US","RA_OF_ASC_NODE":"100.8059","INCLINATION":"53.0542"},{"SITE":"AFETR","REV_AT_EPOCH":"359","MEAN_MOTION_DDOT":"0.0000000000000","PERIOD":"95.590","APOAPSIS":"548.274","CENTER_NAME":"EARTH","DECAY_DATE":null,"NORAD_CAT_ID":"48002","OBJECT_NAME":"STARLINK-2265","OBJECT_TYPE":"PAYLOAD","REF_FRAME":"TEME","MEAN_ANOMALY":"195.7269","LAUNCH_DATE":"2021-03-24","ELEMENT_SET_NO":"999","MEAN_ELEMENT_THEORY":"SGP4","MEAN_MOTION":"15.06433520","CLASSIFICATION_TYPE":"U","ARG_OF_PERICENTER":"49.4685","OBJECT_ID":"2021-024AB","TIME_SYSTEM":"UTC","EPOCH":"2022-04-27T14:00:01.999872","GP_ID":"202157072","ECCENTRICITY":"0.00016790","RCS_SIZE":"LARGE","BSTAR":"-0.00406400000000","TLE_LINE1":"1 48002U 21024AB  22117.58335648 -.00060359  00000-0 -40640-2 0  9999","EPHEMERIS_TYPE":"0","SEMIMAJOR_AXIS":"6925.246","FILE":"3418497","MEAN_MOTION_DOT":"-0.00060359","PERIAPSIS":"545.948","TLE_LINE2":"2 48002  53.0531 120.8074 0001679  49.4685 195.7269 15.06433520  3599","COUNTRY_CODE":"US","RA_OF_ASC_NODE":"120.8074","INCLINATION":"53.0531"},{"GP_ID":"202157822","BSTAR":"0.00006848300000","RCS_SIZE":"LARGE","ECCENTRICITY":"0.00018160","EPHEMERIS_TYPE":"0","TLE_LINE1":"1 48003U 21024AC  22117.48983290  .00000738  00000-0  68483-4 0  9991","SEMIMAJOR_AXIS":"6925.381","MEAN_MOTION_DOT":"0.00000738","FILE":"3418497","PERIAPSIS":"545.988","TLE_LINE2":"2 48003  53.0549 196.2331 0001816  41.7549 318.3578 15.06389392 61642","COUNTRY_CODE":"US","RA_OF_ASC_NODE":"196.2331","INCLINATION":"53.0549","SITE":"AFETR","REV_AT_EPOCH":"6164","MEAN_MOTION_DDOT":"0.0000000000000","PERIOD":"95.593","DECAY_DATE":null,"CENTER_NAME":"EARTH","APOAPSIS":"548.504","NORAD_CAT_ID":"48003","OBJECT_NAME":"STARLINK-2263","OBJECT_TYPE":"PAYLOAD","REF_FRAME":"TEME","ELEMENT_SET_NO":"999","LAUNCH_DATE":"2021-03-24","MEAN_ELEMENT_THEORY":"SGP4","MEAN_ANOMALY":"318.3578","MEAN_MOTION":"15.06389392","CLASSIFICATION_TYPE":"U","ARG_OF_PERICENTER":"41.7549","OBJECT_ID":"2021-024AC","TIME_SYSTEM":"UTC","EPOCH":"2022-04-27T11:45:21.562560"},{"OBJECT_TYPE":"PAYLOAD","REF_FRAME":"TEME","MEAN_ELEMENT_THEORY":"SGP4","LAUNCH_DATE":"2021-03-24","ELEMENT_SET_NO":"999","MEAN_ANOMALY":"312.9348","MEAN_MOTION":"15.06398157","CLASSIFICATION_TYPE":"U","ARG_OF_PERICENTER":"47.1798","OBJECT_ID":"2021-024AE","TIME_SYSTEM":"UTC","EPOCH":"2022-04-27T12:47:43.328832","SITE":"AFETR","REV_AT_EPOCH":"6207","MEAN_MOTION_DDOT":"0.0000000000000","PERIOD":"95.592","DECAY_DATE":null,"CENTER_NAME":"EARTH","APOAPSIS":"548.517","NORAD_CAT_ID":"48005","OBJECT_NAME":"STARLINK-2254","TLE_LINE2":"2 48005  53.0535 166.0333 0001874  47.1798 312.9348 15.06398157 62078","COUNTRY_CODE":"US","RA_OF_ASC_NODE":"166.0333","INCLINATION":"53.0535","GP_ID":"202158073","BSTAR":"-0.00003265300000","RCS_SIZE":"LARGE","ECCENTRICITY":"0.00018740","TLE_LINE1":"1 48005U 21024AE  22117.53314038 -.00000768  00000-0 -32653-4 0  9992","EPHEMERIS_TYPE":"0","SEMIMAJOR_AXIS":"6925.354","MEAN_MOTION_DOT":"-0.00000768","FILE":"3418497","PERIAPSIS":"545.921"}];
